     2.100          NAVIGATION                              RINEX VERSION / TYPE
fic2rin                                 05/20/2015 00:15:51 PGM / RUN BY / DATE
                                                            END OF HEADER
 7 15  5 19 20  0  0.0  .463209114969D-03  .250111042988D-11  .000000000000D+00
     .490000000000D+02  .111125000000D+03  .453876048616D-08 -.148115285573D+01
     .559352338314D-05  .835544976871D-02  .287033617496D-05  .515371727943D+04
     .244800000000D+06  .912696123123D-07  .135800759659D+01 -.115483999252D-06
     .970144320805D+00  .326312500000D+03 -.275535010524D+01 -.827677333226D-08
     .497163566001D-09  .100000000000D+01  .184500000000D+04  .000000000000D+00
     .240000000000D+01  .000000000000D+00 -.111758708954D-07  .490000000000D+02
     .237606000000D+06  .400000000000D+01
 8 15  5 19 20  0  0.0 -.220322981477D-03 -.159161572810D-11  .000000000000D+00
     .760000000000D+02 -.107343750000D+03  .553737351098D-08  .234723576420D+01
    -.564567744732D-05  .774207187351D-02  .344961881638D-05  .515370920753D+04
     .244800000000D+06 -.856816768646D-07  .240057855721D+01 -.169500708580D-06
     .982961420083D+00  .325593750000D+03  .876157501557D+00 -.801283376669D-08
    -.280368821344D-09  .100000000000D+01  .184500000000D+04  .000000000000D+00
     .485000000000D+01  .630000000000D+02 -.190921127796D-07  .760000000000D+02
     .237606000000D+06  .400000000000D+01
 9 15  5 19 20  0  0.0 -.158541835845D-03 -.613908923697D-11  .000000000000D+00
     .780000000000D+02  .758750000000D+02  .417767401689D-08  .542019226602D+00
     .398419797421D-05  .462780706584D-03  .121407210827D-04  .515360300827D+04
     .244800000000D+06  .186264514923D-07  .281719872089D+00 -.391155481339D-07
     .957974454521D+00  .142218750000D+03  .265537866515D+01 -.779103881375D-08
    -.154649298907D-09  .100000000000D+01  .184500000000D+04  .000000000000D+00
     .240000000000D+01  .000000000000D+00  .465661287308D-09  .780000000000D+02
     .237606000000D+06  .400000000000D+01
10 15  5 19 20  0  0.0 -.175531487912D-03 -.159161572810D-11  .000000000000D+00
     .870000000000D+02 -.281562500000D+02  .509914097112D-08  .241322518703D+01
    -.161677598953D-05  .146873558406D-01  .640749931335D-05  .515367762566D+04
     .244800000000D+06  .521540641785D-07 -.752800268513D+00 -.277534127235D-06
     .941209262652D+00  .245468750000D+03  .930337488931D+00 -.813462455405D-08
    -.407874132452D-09  .100000000000D+01  .184500000000D+04  .000000000000D+00
     .340000000000D+01  .000000000000D+00 -.279396772385D-08  .870000000000D+02
     .237606000000D+06  .400000000000D+01
11 15  5 19 20  0  0.0 -.579308252782D-03 -.250111042988D-11  .000000000000D+00
     .820000000000D+02  .292812500000D+02  .611204030530D-08 -.142079432163D+01
     .165589153767D-05  .157636218937D-01  .917911529541D-05  .515373248291D+04
     .244800000000D+06  .111758708954D-06 -.215227360512D+01  .489875674248D-06
     .892943804797D+00  .164781250000D+03  .140290677316D+01 -.873750680937D-08
     .449661587353D-09  .100000000000D+01  .184500000000D+04  .000000000000D+00
     .340000000000D+01  .000000000000D+00 -.121071934700D-07  .820000000000D+02
     .237606000000D+06  .400000000000D+01
13 15  5 19 20  0  0.0 -.115866772830D-03 -.329691829393D-11  .000000000000D+00
     .570000000000D+02  .798437500000D+02  .388087593977D-08 -.729257113857D+00
     .398792326450D-05  .516317714937D-02  .117402523756D-04  .515369016266D+04
     .244800000000D+06 -.949949026108D-07  .396658475332D+00 -.558793544769D-08
     .974663309862D+00  .162718750000D+03  .208762867130D+01 -.770817821942D-08
    -.132148361653D-10  .100000000000D+01  .184500000000D+04  .000000000000D+00
     .240000000000D+01  .000000000000D+00 -.111758708954D-07  .570000000000D+02
     .237606000000D+06  .400000000000D+01
15 15  5 19 20  0  0.0 -.250143930316D-03 -.216004991671D-11  .000000000000D+00
     .480000000000D+02  .494687500000D+02  .481127183736D-08  .526660242793D+00
     .268779695034D-05  .713168294169D-02  .114198774099D-04  .515364682198D+04
     .244800000000D+06  .372529029846D-07  .238334406122D+00  .184401869774D-06
     .933847952504D+00  .145812500000D+03  .393360550349D+00 -.811998108695D-08
    -.213223167315D-09  .100000000000D+01  .184500000000D+04  .000000000000D+00
     .240000000000D+01  .000000000000D+00 -.107102096081D-07  .480000000000D+02
     .237606000000D+06  .400000000000D+01
16 15  5 19 20  0  0.0 -.127541832626D-03  .375166564481D-11  .000000000000D+00
     .740000000000D+02 -.113875000000D+03  .416303054979D-08  .216855451113D+01
    -.580027699471D-05  .819506263360D-02  .411085784435D-05  .515355629539D+04
     .244800000000D+06 -.257045030594D-06  .244586422941D+01  .122934579849D-06
     .990276755105D+00  .319406250000D+03  .298254171598D+00 -.804747806691D-08
    -.322156276245D-09  .100000000000D+01  .184500000000D+04  .000000000000D+00
     .240000000000D+01  .000000000000D+00 -.102445483208D-07  .740000000000D+02
     .237606000000D+06  .400000000000D+01
17 15  5 19 20  0  0.0 -.171960331500D-03 -.181898940355D-11  .000000000000D+00
     .500000000000D+02 -.947187500000D+02  .395195032888D-08  .124183077949D+01
    -.486150383949D-05  .100898919627D-01  .121034681797D-04  .515377465248D+04
     .244800000000D+06 -.214204192162D-06 -.281109896254D+01  .931322574615D-08
     .972707236246D+00  .158093750000D+03 -.200846275411D+01 -.777389524251D-08
     .742888087128D-10  .100000000000D+01  .184500000000D+04  .000000000000D+00
     .240000000000D+01  .000000000000D+00 -.107102096081D-07  .500000000000D+02
     .237606000000D+06  .400000000000D+01
18 15  5 19 20  0  0.0  .402714591473D-03  .295585778076D-11  .000000000000D+00
     .790000000000D+02 -.341562500000D+02  .535593738200D-08  .274439873707D+01
    -.182166695595D-05  .162215500604D-01  .612623989582D-05  .515360008430D+04
     .244800000000D+06  .931322574615D-07 -.780909355803D+00 -.169500708580D-06
     .924971994031D+00  .239625000000D+03 -.196348928764D+01 -.818748389871D-08
    -.449661587353D-09  .100000000000D+01  .184500000000D+04  .000000000000D+00
     .240000000000D+01  .000000000000D+00 -.111758708954D-07  .790000000000D+02
     .237606000000D+06  .400000000000D+01
19 15  5 19 20  0  0.0 -.510899815708D-03 -.113686837722D-11  .000000000000D+00
     .670000000000D+02 -.643125000000D+02  .413588656199D-08  .456836492662D+00
    -.313296914101D-05  .114017255837D-01  .118445605040D-04  .515373498917D+04
     .244800000000D+06  .745058059692D-08 -.276149288509D+01  .182539224625D-06
     .969756442705D+00  .151937500000D+03  .545449427175D+00 -.786497046473D-08
     .903609067516D-10  .100000000000D+01  .184500000000D+04  .000000000000D+00
     .240000000000D+01  .000000000000D+00 -.153668224812D-07  .670000000000D+02
     .237606000000D+06  .400000000000D+01
20 15  5 19 20  0  0.0  .321496278048D-03  .363797880709D-11  .000000000000D+00
     .280000000000D+02 -.268437500000D+02  .563166315280D-08  .113121257564D+01
    -.143237411976D-05  .562491058372D-02  .567920506001D-05  .515580233383D+04
     .244800000000D+06 -.484287738800D-07 -.833333306054D+00 -.577419996262D-07
     .926108546790D+00  .255375000000D+03  .121793497819D+01 -.862393064990D-08
    -.438232539859D-09  .100000000000D+01  .184500000000D+04  .000000000000D+00
     .240000000000D+01  .000000000000D+00 -.838190317154D-08  .280000000000D+02
     .237606000000D+06  .400000000000D+01
21 15  5 19 20  0  0.0 -.447547528893D-03 -.352429196937D-11  .000000000000D+00
     .800000000000D+02  .398750000000D+02  .517164399116D-08 -.243355949525D+01
     .192224979401D-05  .225563753629D-01  .655092298985D-05  .515356124496D+04
     .244800000000D+06  .236555933952D-06 -.182475609655D+01 -.447034835815D-07
     .933512088457D+00  .234843750000D+03 -.190810395525D+01 -.796818904991D-08
     .555023118941D-09  .100000000000D+01  .184500000000D+04  .000000000000D+00
     .340000000000D+01  .000000000000D+00 -.116415321827D-07  .800000000000D+02
     .237606000000D+06  .400000000000D+01
22 15  5 19 20  0  0.0  .352071598172D-03  .409272615798D-11  .000000000000D+00
     .960000000000D+02 -.322500000000D+02  .553737351098D-08  .230429055173D+01
    -.172108411789D-05  .793778302614D-02  .623241066933D-05  .515368458557D+04
     .244800000000D+06  .223517417908D-07 -.779725360611D+00 -.139698386192D-06
     .922784173711D+00  .238531250000D+03 -.205006344978D+01 -.841963642594D-08
    -.436089593453D-09  .100000000000D+01  .184500000000D+04  .000000000000D+00
     .340000000000D+01  .000000000000D+00 -.176951289177D-07  .960000000000D+02
     .237606000000D+06  .400000000000D+01
23 15  5 19 20  0  0.0 -.109393149614D-03 -.250111042988D-11  .000000000000D+00
     .380000000000D+02  .802187500000D+02  .443768484739D-08  .654212854248D-01
     .425614416599D-05  .101760522230D-01  .114962458611D-04  .515362455940D+04
     .244800000000D+06  .126659870148D-06  .290404299476D+00  .115483999252D-06
     .949000824322D+00  .152687500000D+03 -.268469820889D+01 -.803569186168D-08
    -.151077721565D-09  .100000000000D+01  .184500000000D+04  .000000000000D+00
     .240000000000D+01  .000000000000D+00 -.200234353542D-07  .380000000000D+02
     .237606000000D+06  .400000000000D+01
24 15  5 19 20  0  0.0 -.485409982502D-04 -.682121026330D-12  .000000000000D+00
     .540000000000D+02  .104500000000D+03  .487556022951D-08 -.689797681139D+00
     .553578138351D-05  .322390859947D-02  .328756868839D-05  .515367643356D+04
     .244800000000D+06  .223517417908D-07  .131724376614D+01  .000000000000D+00
     .953372816445D+00  .311812500000D+03  .364094223174D+00 -.846035240764D-08
     .370015412627D-09  .100000000000D+01  .184500000000D+04  .000000000000D+00
     .240000000000D+01  .000000000000D+00  .232830643654D-08  .540000000000D+02
     .237606000000D+06  .400000000000D+01
